start=new Date('2022-12-06T00:00:00.000Z').valueOf();
sats=[{"ECCENTRICITY":"0.00024400","NORAD_CAT_ID":"52850","MEAN_MOTION_DOT":"0.00001233","MEAN_ELEMENT_THEORY":"SGP4","CLASSIFICATION_TYPE":"U","CENTER_NAME":"EARTH","TLE_LINE2":"2 52850  53.2217 338.2110 0002440  42.5510 317.5671 15.08835546 26077","RA_OF_ASC_NODE":"338.2110","SEMIMAJOR_AXIS":"6917.894","MEAN_ANOMALY":"317.5671","ARG_OF_PERICENTER":"42.5510","MEAN_MOTION":"15.08835546","BSTAR":"0.00009555200000","OBJECT_ID":"2022-062W","PERIOD":"95.438","REF_FRAME":"TEME","MEAN_MOTION_DDOT":"0.0000000000000","OBJECT_NAME":"STARLINK-4187","PERIAPSIS":"538.071","GP_ID":"219597315","OBJECT_TYPE":"PAYLOAD","RCS_SIZE":"LARGE","LAUNCH_DATE":"2022-06-17","FILE":"3682099","SITE":"AFETR","ELEMENT_SET_NO":"999","TIME_SYSTEM":"UTC","EPHEMERIS_TYPE":"0","INCLINATION":"53.2217","DECAY_DATE":null,"APOAPSIS":"541.447","EPOCH":"2022-12-05T06:00:35.147520","TLE_LINE1":"1 52850U 22062W   22339.25040680  .00001233  00000-0  95552-4 0  9995","REV_AT_EPOCH":"2607","COUNTRY_CODE":"US"},{"CLASSIFICATION_TYPE":"U","CENTER_NAME":"EARTH","TLE_LINE2":"2 52851  53.2189 326.1880 0003265  30.8259 329.2924 15.08848995 26277","RA_OF_ASC_NODE":"326.1880","ECCENTRICITY":"0.00032650","MEAN_ELEMENT_THEORY":"SGP4","MEAN_MOTION_DOT":"0.00002957","NORAD_CAT_ID":"52851","OBJECT_ID":"2022-062X","MEAN_MOTION":"15.08848995","BSTAR":"0.00020381000000","MEAN_MOTION_DDOT":"0.0000000000000","REF_FRAME":"TEME","PERIAPSIS":"537.459","OBJECT_NAME":"STARLINK-3809","PERIOD":"95.437","SEMIMAJOR_AXIS":"6917.853","ARG_OF_PERICENTER":"30.8259","MEAN_ANOMALY":"329.2924","FILE":"3682465","TIME_SYSTEM":"UTC","ELEMENT_SET_NO":"999","SITE":"AFETR","OBJECT_TYPE":"PAYLOAD","GP_ID":"219628689","RCS_SIZE":"LARGE","LAUNCH_DATE":"2022-06-17","EPOCH":"2022-12-05T16:48:23.982912","COUNTRY_CODE":"US","TLE_LINE1":"1 52851U 22062X   22339.70027758  .00002957  00000-0  20381-3 0  9998","REV_AT_EPOCH":"2627","EPHEMERIS_TYPE":"0","INCLINATION":"53.2189","DECAY_DATE":null,"APOAPSIS":"541.977"},{"NORAD_CAT_ID":"52852","MEAN_MOTION_DOT":"0.00002614","MEAN_ELEMENT_THEORY":"SGP4","ECCENTRICITY":"0.00032990","RA_OF_ASC_NODE":"326.1576","TLE_LINE2":"2 52852  53.2174 326.1576 0003299  30.1158 330.0024 15.08844019 26276","CENTER_NAME":"EARTH","CLASSIFICATION_TYPE":"U","MEAN_ANOMALY":"330.0024","ARG_OF_PERICENTER":"30.1158","SEMIMAJOR_AXIS":"6917.868","PERIOD":"95.437","PERIAPSIS":"537.451","OBJECT_NAME":"STARLINK-4184","REF_FRAME":"TEME","MEAN_MOTION_DDOT":"0.0000000000000","BSTAR":"0.00018228000000","MEAN_MOTION":"15.08844019","OBJECT_ID":"2022-062Y","LAUNCH_DATE":"2022-06-17","RCS_SIZE":"LARGE","GP_ID":"219629297","OBJECT_TYPE":"PAYLOAD","SITE":"AFETR","ELEMENT_SET_NO":"999","TIME_SYSTEM":"UTC","FILE":"3682465","APOAPSIS":"542.015","DECAY_DATE":null,"EPHEMERIS_TYPE":"0","INCLINATION":"53.2174","TLE_LINE1":"1 52852U 22062Y   22339.70764406  .00002614  00000-0  18228-3 0  9994","COUNTRY_CODE":"US","REV_AT_EPOCH":"2627","EPOCH":"2022-12-05T16:59:00.446784"},{"SEMIMAJOR_AXIS":"6917.867","ARG_OF_PERICENTER":"29.4609","MEAN_ANOMALY":"330.6565","OBJECT_ID":"2022-062Z","BSTAR":"0.00018288000000","MEAN_MOTION":"15.08844492","PERIAPSIS":"537.503","OBJECT_NAME":"STARLINK-4189","MEAN_MOTION_DDOT":"0.0000000000000","REF_FRAME":"TEME","PERIOD":"95.437","ECCENTRICITY":"0.00032220","MEAN_ELEMENT_THEORY":"SGP4","MEAN_MOTION_DOT":"0.00002624","NORAD_CAT_ID":"52853","CENTER_NAME":"EARTH","CLASSIFICATION_TYPE":"U","RA_OF_ASC_NODE":"326.2226","TLE_LINE2":"2 52853  53.2195 326.2226 0003222  29.4609 330.6565 15.08844492 26272","DECAY_DATE":null,"EPHEMERIS_TYPE":"0","INCLINATION":"53.2195","APOAPSIS":"541.961","EPOCH":"2022-12-05T16:37:48.702720","COUNTRY_CODE":"US","TLE_LINE1":"1 52853U 22062Z   22339.69292480  .00002624  00000-0  18288-3 0  9998","REV_AT_EPOCH":"2627","OBJECT_TYPE":"PAYLOAD","GP_ID":"219630058","LAUNCH_DATE":"2022-06-17","RCS_SIZE":"LARGE","FILE":"3682465","TIME_SYSTEM":"UTC","SITE":"AFETR","ELEMENT_SET_NO":"999"},{"LAUNCH_DATE":"2022-06-17","RCS_SIZE":"LARGE","OBJECT_TYPE":"PAYLOAD","GP_ID":"219629078","TIME_SYSTEM":"UTC","ELEMENT_SET_NO":"999","SITE":"AFETR","FILE":"3682465","APOAPSIS":"541.732","DECAY_DATE":null,"INCLINATION":"53.2197","EPHEMERIS_TYPE":"0","REV_AT_EPOCH":"2627","TLE_LINE1":"1 52854U 22062AA  22339.69660604 -.00000598  00000-0 -19458-4 0  9997","COUNTRY_CODE":"US","EPOCH":"2022-12-05T16:43:06.761856","MEAN_ELEMENT_THEORY":"SGP4","MEAN_MOTION_DOT":"-0.00000598","NORAD_CAT_ID":"52854","ECCENTRICITY":"0.00028710","RA_OF_ASC_NODE":"326.2059","TLE_LINE2":"2 52854  53.2197 326.2059 0002871  25.2159 334.8973 15.08839967 26272","CENTER_NAME":"EARTH","CLASSIFICATION_TYPE":"U","ARG_OF_PERICENTER":"25.2159","MEAN_ANOMALY":"334.8973","SEMIMAJOR_AXIS":"6917.880","PERIAPSIS":"537.759","OBJECT_NAME":"STARLINK-4204","REF_FRAME":"TEME","MEAN_MOTION_DDOT":"0.0000000000000","PERIOD":"95.438","OBJECT_ID":"2022-062AA","BSTAR":"-0.00001945800000","MEAN_MOTION":"15.08839967"},{"INCLINATION":"53.2182","EPHEMERIS_TYPE":"0","DECAY_DATE":null,"APOAPSIS":"541.609","EPOCH":"2022-12-05T16:27:12.663072","TLE_LINE1":"1 52855U 22062AB  22339.68556323  .00003904  00000-0  26317-3 0  9992","REV_AT_EPOCH":"2627","COUNTRY_CODE":"US","OBJECT_TYPE":"PAYLOAD","GP_ID":"219629101","RCS_SIZE":"LARGE","LAUNCH_DATE":"2022-06-17","FILE":"3682465","TIME_SYSTEM":"UTC","ELEMENT_SET_NO":"999","SITE":"AFETR","SEMIMAJOR_AXIS":"6917.841","ARG_OF_PERICENTER":"35.2544","MEAN_ANOMALY":"324.8630","OBJECT_ID":"2022-062AB","MEAN_MOTION":"15.08852933","BSTAR":"0.00026317000000","MEAN_MOTION_DDOT":"0.0000000000000","REF_FRAME":"TEME","PERIAPSIS":"537.803","OBJECT_NAME":"STARLINK-4209","PERIOD":"95.437","ECCENTRICITY":"0.00027510","MEAN_MOTION_DOT":"0.00003904","MEAN_ELEMENT_THEORY":"SGP4","NORAD_CAT_ID":"52855","CLASSIFICATION_TYPE":"U","CENTER_NAME":"EARTH","TLE_LINE2":"2 52855  53.2182 326.2528 0002751  35.2544 324.8630 15.08852933 26271","RA_OF_ASC_NODE":"326.2528"},{"CLASSIFICATION_TYPE":"U","CENTER_NAME":"EARTH","TLE_LINE2":"2 52856  53.2186 326.2346 0002662  37.9111 322.2068 15.08839929 26271","RA_OF_ASC_NODE":"326.2346","ECCENTRICITY":"0.00026620","NORAD_CAT_ID":"52856","MEAN_ELEMENT_THEORY":"SGP4","MEAN_MOTION_DOT":"0.00002454","MEAN_MOTION":"15.08839929","BSTAR":"0.00017225000000","OBJECT_ID":"2022-062AC","PERIOD":"95.438","REF_FRAME":"TEME","MEAN_MOTION_DDOT":"0.0000000000000","OBJECT_NAME":"STARLINK-4201","PERIAPSIS":"537.904","SEMIMAJOR_AXIS":"6917.881","MEAN_ANOMALY":"322.2068","ARG_OF_PERICENTER":"37.9111","FILE":"3682465","ELEMENT_SET_NO":"999","SITE":"AFETR","TIME_SYSTEM":"UTC","GP_ID":"219628887","OBJECT_TYPE":"PAYLOAD","RCS_SIZE":"LARGE","LAUNCH_DATE":"2022-06-17","EPOCH":"2022-12-05T16:32:30.968448","TLE_LINE1":"1 52856U 22062AC  22339.68924732  .00002454  00000-0  17225-3 0  9993","COUNTRY_CODE":"US","REV_AT_EPOCH":"2627","INCLINATION":"53.2186","EPHEMERIS_TYPE":"0","DECAY_DATE":null,"APOAPSIS":"541.587"},{"GP_ID":"219629683","OBJECT_TYPE":"PAYLOAD","RCS_SIZE":"LARGE","LAUNCH_DATE":"2022-06-17","FILE":"3682465","SITE":"AFETR","ELEMENT_SET_NO":"999","TIME_SYSTEM":"UTC","EPHEMERIS_TYPE":"0","INCLINATION":"53.2185","DECAY_DATE":null,"APOAPSIS":"541.406","EPOCH":"2022-12-05T16:16:36.346944","COUNTRY_CODE":"US","TLE_LINE1":"1 52857U 22062AD  22339.67819846  .00001748  00000-0  12789-3 0  9997","REV_AT_EPOCH":"2627","ECCENTRICITY":"0.00024300","NORAD_CAT_ID":"52857","MEAN_MOTION_DOT":"0.00001748","MEAN_ELEMENT_THEORY":"SGP4","CLASSIFICATION_TYPE":"U","CENTER_NAME":"EARTH","TLE_LINE2":"2 52857  53.2185 326.2813 0002430  28.6719 331.4406 15.08846693 26278","RA_OF_ASC_NODE":"326.2813","SEMIMAJOR_AXIS":"6917.860","MEAN_ANOMALY":"331.4406","ARG_OF_PERICENTER":"28.6719","MEAN_MOTION":"15.08846693","BSTAR":"0.00012789000000","OBJECT_ID":"2022-062AD","PERIOD":"95.437","MEAN_MOTION_DDOT":"0.0000000000000","REF_FRAME":"TEME","PERIAPSIS":"538.044","OBJECT_NAME":"STARLINK-4199"},{"SEMIMAJOR_AXIS":"6917.845","ARG_OF_PERICENTER":"35.6808","MEAN_ANOMALY":"324.4368","OBJECT_ID":"2022-062AE","BSTAR":"0.00009432400000","MEAN_MOTION":"15.08851507","OBJECT_NAME":"STARLINK-4198","PERIAPSIS":"537.801","REF_FRAME":"TEME","MEAN_MOTION_DDOT":"0.0000000000000","PERIOD":"95.437","ECCENTRICITY":"0.00027600","MEAN_ELEMENT_THEORY":"SGP4","MEAN_MOTION_DOT":"0.00001213","NORAD_CAT_ID":"52858","CENTER_NAME":"EARTH","CLASSIFICATION_TYPE":"U","RA_OF_ASC_NODE":"326.2485","TLE_LINE2":"2 52858  53.2199 326.2485 0002760  35.6808 324.4368 15.08851507 26271","DECAY_DATE":null,"EPHEMERIS_TYPE":"0","INCLINATION":"53.2199","APOAPSIS":"541.620","EPOCH":"2022-12-05T16:28:34.981536","TLE_LINE1":"1 52858U 22062AE  22339.68651599  .00001213  00000-0  94324-4 0  9991","REV_AT_EPOCH":"2627","COUNTRY_CODE":"US","OBJECT_TYPE":"PAYLOAD","GP_ID":"219629490","LAUNCH_DATE":"2022-06-17","RCS_SIZE":"LARGE","FILE":"3682465","TIME_SYSTEM":"UTC","ELEMENT_SET_NO":"999","SITE":"AFETR"},{"GP_ID":"219628690","OBJECT_TYPE":"PAYLOAD","RCS_SIZE":"LARGE","LAUNCH_DATE":"2022-06-17","FILE":"3682465","ELEMENT_SET_NO":"999","SITE":"AFETR","TIME_SYSTEM":"UTC","EPHEMERIS_TYPE":"0","INCLINATION":"53.2170","DECAY_DATE":null,"APOAPSIS":"541.526","EPOCH":"2022-12-05T16:11:19.010976","COUNTRY_CODE":"US","TLE_LINE1":"1 52859U 22062AF  22339.67452559  .00002623  00000-0  18288-3 0  9996","REV_AT_EPOCH":"2627","ECCENTRICITY":"0.00025750","NORAD_CAT_ID":"52859","MEAN_MOTION_DOT":"0.00002623","MEAN_ELEMENT_THEORY":"SGP4","CLASSIFICATION_TYPE":"U","CENTER_NAME":"EARTH","TLE_LINE2":"2 52859  53.2170 326.2952 0002575  33.8522 326.2634 15.08840246 26271","RA_OF_ASC_NODE":"326.2952","SEMIMAJOR_AXIS":"6917.880","MEAN_ANOMALY":"326.2634","ARG_OF_PERICENTER":"33.8522","MEAN_MOTION":"15.08840246","BSTAR":"0.00018288000000","OBJECT_ID":"2022-062AF","PERIOD":"95.438","MEAN_MOTION_DDOT":"0.0000000000000","REF_FRAME":"TEME","OBJECT_NAME":"STARLINK-4196","PERIAPSIS":"537.963"}];
